SCD 1                   
1 22490U 93009B   26190.05629478  .00000331  00000+0  39933-4 0  9994
2 22490  24.9700  72.5451 0041877   9.7720 131.7183 14.46127141764289
TECHSAT 1B (GO-32)      
1 25397U 98043D   26190.68260220  .00000032  00000+0  34171-4 0  9998
2 25397  99.0080 184.0097 0002038 123.5145 236.6227 14.24432637454532
SCD 2                   
1 25504U 98060A   26189.42901341  .00000317  00000+0  37738-4 0  9991
2 25504  24.9961 301.1645 0016730 348.4570  70.0412 14.45533420463409
DLR-TUBSAT              
1 25757U 99029B   26189.92493167  .00000047  00000+0  23559-4 0  9990
2 25757  98.6706 186.1452 0013007 285.5031  74.4727 14.52432344436406
TERRA                   
1 25994U 99068A   26190.27644859  .00000261  00000+0  62003-4 0  9997
2 25994  97.9444 238.9456 0003146 134.5499 298.5628 14.61120751412830
MAROC-TUBSAT            
1 27004U 01056D   26190.78440000 -.00000020  00000+0  30011-4 0  9997
2 27004  99.8095   8.0710 0020636  85.4246 341.6143 13.70263335229285
AQUA                    
1 27424U 02022A   26190.84678780  .00000491  00000+0  10730-3 0  9998
2 27424  98.4291 160.5845 0000785 103.5476 343.2193 14.62192238286581
SHIYAN-1 (SY-1)         
1 28220U 04012A   26190.16577245  .00010910  00000+0  33046-3 0  9995
2 28220  97.8685 269.6704 0004104 304.3430  55.7423 15.34348353214461
AURA                    
1 28376U 04026A   26190.78680976  .00000489  00000+0  10861-3 0  9996
2 28376  98.3427 147.4290 0001253  91.5620 268.5724 14.61362934169517
IRS-P5 (CARTOSAT-1)     
1 28649U 05017A   26189.95526612  .00001006  00000+0  10678-3 0  9995
2 28649  97.5304 212.0322 0001703  56.4450 303.6931 14.91106873147069
SINAH 1                 
1 28893U 05043D   26190.81103111  .00000191  00000+0  45654-4 0  9994
2 28893  98.2886 325.2696 0013998 200.5999 159.4641 14.64173335103832
RESURS-DK 1             
1 29228U 06021A   26190.24541127  .00001215  00000+0  74141-4 0  9995
2 29228  69.9328 282.4503 0006781 277.8398  82.1999 15.13306588105916
ARIRANG-2 (KOMPSAT-2)   
1 29268U 06031A   26190.84693177  .00000563  00000+0  11409-3 0  9991
2 29268  97.8319  14.1982 0014719   7.7653 104.9940 14.64675060 64793
LAPAN-TUBSAT            
1 29709U 07001A   26190.81242777  .00000116  00000+0  19898-4 0  9997
2 29709  98.1353 190.5470 0013462 109.6644 250.6024 14.85971430 54516
HAIYANG-1B              
1 31113U 07010A   26190.65907088  .00000056  00000+0  37059-4 0  9996
2 31113  98.3510 171.6342 0014450 131.0911 229.1523 14.31032387  3853
COSMO-SKYMED 1          
1 31598U 07023A   26190.85880222  .00001457  00000+0  13118-3 0  9994
2 31598  97.8844  22.9064 0001060  95.8959 264.2383 14.97204164 33184
TERRASAR-X              
1 31698U 07026A   26188.47915537  .00000240  00000+0  14624-4 0  9994
2 31698  97.4461 195.8972 0001878  86.9540 273.1909 15.19153986 56300
WORLDVIEW-1 (WV-1)      
1 32060U 07041A   26190.74167181  .00004232  00000+0  17496-3 0  9996
2 32060  97.3891 310.1675 0001065 238.8117 121.3016 15.24519488 46310
YAOGAN-3                
1 32289U 07055A   26190.88047725  .00000829  00000+0  89798-4 0  9993
2 32289  97.8149 220.5335 0001484  78.2156 281.9229 14.90865793  9251
COSMO-SKYMED 2          
1 32376U 07059A   26190.84456272  .00000320  00000+0  46821-4 0  9997
2 32376  97.8891  14.1144 0001422  93.1792 266.9584 14.82147829  5360
RADARSAT-2              
1 32382U 07061A   26190.84831770  .00000004  00000+0  18404-4 0  9992
2 32382  98.5786 197.4567 0001312  84.6959 275.4373 14.29982179969197
CARTOSAT-2A             
1 32783U 08021A   26190.84216510  .00000626  00000+0  90847-4 0  9994
2 32783  97.7624 238.7763 0012877  43.3728 316.8495 14.79273309982154
HUANJING 1A (HJ-1A)     
1 33320U 08041A   26190.88900065  .00000126  00000+0  21219-4 0  9995
2 33320  97.6696 175.8507 0020564  65.8097 294.5264 14.84038780961776
HUANJING 1B (HJ-1B)     
1 33321U 08041B   26190.86848527  .00001001  00000+0  12684-3 0  9996
2 33321  97.6533 178.9340 0037880 108.0313 252.5035 14.83360160961775
GEOEYE 1                
1 33331U 08042A   26190.76427051  .00000248  00000+0  55599-4 0  9997
2 33331  98.1329 264.4237 0004360   4.8092 355.3152 14.64646607953455
THEOS                   
1 33396U 08049A   26190.86697372 -.00000174  00000+0 -61883-4 0  9994
2 33396  98.5559 247.4131 0001115  85.2702 274.8603 14.20135272921189
COSMO-SKYMED 3          
1 33412U 08054A   26190.85115558  .00002417  00000+0  16502-3 0  9996
2 33412  97.8269  49.7973 0015352 183.2434 176.8696 15.07095704960350
YAOGAN-4                
1 33446U 08061A   26190.22713588  .00000715  00000+0  93934-4 0  9993
2 33446  97.9305 123.5752 0014361   5.2614 354.8748 14.83244511948938
GOSAT (IBUKI)           
1 33492U 09002A   26190.29756575 -.00000056  00000+0 -13925-5 0  9993
2 33492  98.0911 301.1039 0001114  80.2979 279.8352 14.67534705934701
DEIMOS-1                
1 35681U 09041A   26190.84041418  .00000068  00000+0  17116-4 0  9998
2 35681  97.7430 347.0893 0002667 100.0714 260.0797 14.75260081910222
